NORAD_CAT_ID,OBJECT_NAME,OBJECT_TYPE,EPOCH,MEAN_MOTION,ECCENTRICITY,INCLINATION,RA_OF_ASC_NODE,ARG_OF_PERICENTER,MEAN_ANOMALY,BSTAR,MEAN_MOTION_DOT,MEAN_MOTION_DDOT,TLE_LINE0,TLE_LINE1,TLE_LINE2,SEMIMAJOR_AXIS,PERIOD,APOGEE,PERIGEE,DECAYED
50809.0,STARLINK-3232,PAYLOAD,2022-12-26 09:47:42,15.08839565,0.0003093,53.2186,8.2381,24.0951,336.0186,3.8716e-05,3.28e-06,0.0,0 STARLINK-3232,1 50809U 22001G   22360.40813538  .00000328  00000-0  38716-4 0  9994,2 50809  53.2186   8.2381 0003093  24.0951 336.0186 15.08839565 55307,6917.882,95.438,541.886,537.607,0.0
50809.0,STARLINK-3232,PAYLOAD,2022-12-26 11:23:05,15.08840625,0.0003111,53.2186,7.9407,24.1012,336.0125,4.718600000000001e-05,4.62e-06,0.0,0 STARLINK-3232,1 50809U 22001G   22360.47437450  .00000462  00000-0  47186-4 0  9996,2 50809  53.2186   7.9407 0003111  24.1012 336.0125 15.08840625 54033,6917.878000000002,95.438,541.896,537.591,0.0
50809.0,STARLINK-3232,PAYLOAD,2022-12-26 17:44:37,15.08848388,0.0003159,53.2187,6.7511,24.7027,335.4116,8.058e-05,9.94e-06,0.0,0 STARLINK-3232,1 50809U 22001G   22360.73932861  .00000994  00000-0  80580-4 0  9996,2 50809  53.2187   6.7511 0003159  24.7027 335.4116 15.08848388 55354,6917.855,95.437,541.905,537.534,0.0
50809.0,STARLINK-3232,PAYLOAD,2022-12-27 01:41:32,15.08855951,0.0002863,53.2186,5.2644,21.4716,338.6396,0.00020117,2.916e-05,0.0,0 STARLINK-3232,1 50809U 22001G   22361.07052021  .00002916  00000-0  20117-3 0  9990,2 50809  53.2186   5.2644 0002863  21.4716 338.6396 15.08855951 55409,6917.831999999999,95.437,541.677,537.716,0.0
50809.0,STARLINK-3232,PAYLOAD,2022-12-27 09:38:29,15.08849605,0.0003108,53.2177,3.7778,23.7601,336.3534,0.00028896,4.315e-05,0.0,0 STARLINK-3232,1 50809U 22001G   22361.40172666  .00004315  00000-0  28896-3 0  9992,2 50809  53.2177   3.7778 0003108  23.7601 336.3534 15.08849605 55454,6917.851,95.437,541.866,537.566,0.0
50809.0,STARLINK-3232,PAYLOAD,2022-12-27 23:56:56,15.08861191,0.0003235,53.2176,1.1021,24.1592,335.9552,0.00038261,5.81e-05,0.0,0 STARLINK-3232,1 50809U 22001G   22361.99787866  .00005810  00000-0  38261-3 0  9998,2 50809  53.2176   1.1021 0003235  24.1592 335.9552 15.08861191 54268,6917.816,95.436,541.919,537.443,0.0
50809.0,STARLINK-3232,PAYLOAD,2022-12-29 06:09:17,15.08834849,0.0003076,53.218,355.4517,24.6314,335.4825,-7.7708e-05,-1.525e-05,0.0,0 STARLINK-3232,1 50809U 22001G   22363.25644978 -.00001525  00000-0 -77708-4 0  9996,2 50809  53.2180 355.4517 0003076  24.6314 335.4825 15.08834849 55739,6917.896,95.438,541.889,537.633,0.0
50809.0,STARLINK-3232,PAYLOAD,2022-12-29 10:55:27,15.08825961,0.0003135,53.218,354.5598,22.7835,337.3296,-0.00015065,-2.685e-05,0.0,0 STARLINK-3232,1 50809U 22001G   22363.45517591 -.00002685  00000-0 -15065-3 0  9993,2 50809  53.2180 354.5598 0003135  22.7835 337.3296 15.08825961 54480,6917.9230000000025,95.438,541.957,537.62,0.0
50809.0,STARLINK-3232,PAYLOAD,2022-12-30 09:10:51,15.08849057,0.0003243,53.218,350.397,22.3941,337.7192,0.0012392,0.00019495,0.0,0 STARLINK-3232,1 50809U 22001G   22364.38254175  .00019495  00000-0  12392-2 0  9996,2 50809  53.2180 350.3970 0003243  22.3941 337.7192 15.08849057 55901,6917.853,95.437,541.961,537.474,0.0
50809.0,STARLINK-3232,PAYLOAD,2022-12-31 09:01:37,15.08877222,0.0003215,53.2179,345.9367,22.797,337.3165,0.00071297,0.00011089,0.0,0 STARLINK-3232,1 50809U 22001G   22365.37612381  .00011089  00000-0  71297-3 0  9994,2 50809  53.2179 345.9367 0003215  22.7970 337.3165 15.08877222 54779,6917.767,95.435,541.856,537.408,0.0
50809.0,STARLINK-3232,PAYLOAD,2022-12-31 15:23:09,15.08867559,0.0003405,53.2189,344.7453,23.7252,336.3897,0.0003407,5.142e-05,0.0,0 STARLINK-3232,1 50809U 22001G   22365.64108052  .00005142  00000-0  34070-3 0  9990,2 50809  53.2189 344.7453 0003405  23.7252 336.3897 15.08867559 54816,6917.795999999999,95.436,542.0169999999998,537.306,0.0
50809.0,STARLINK-3232,PAYLOAD,2023-01-01 05:41:37,15.08841231,0.0002998,53.2177,342.0704,18.3926,341.7174,-0.00024159,-4.132e-05,0.0,0 STARLINK-3232,1 50809U 22001G   23001.23724184 -.00004132  00000-0 -24159-3 0  9990,2 50809  53.2177 342.0704 0002998  18.3926 341.7174 15.08841231 56186,6917.877,95.437,541.816,537.668,0.0
50809.0,STARLINK-3232,PAYLOAD,2023-01-01 10:27:47,15.08823992,0.0003083999999999,53.2177,341.1782,17.951,342.159,-0.0005321,-8.744e-05,0.0,0 STARLINK-3232,1 50809U 22001G   23001.43596627 -.00008744  00000-0 -53210-3 0  9994,2 50809  53.2177 341.1782 0003084  17.9510 342.1590 15.08823992 56218,6917.929,95.439,541.928,537.661,0.0
50809.0,STARLINK-3232,PAYLOAD,2023-01-01 15:13:57,15.08822176,0.0003186,53.2172,340.2861,16.3505,343.7589,-0.0004434,-7.336e-05,0.0,0 STARLINK-3232,1 50809U 22001G   23001.63469142 -.00007336  00000-0 -44340-3 0  9997,2 50809  53.2172 340.2861 0003186  16.3505 343.7589 15.08822176 54969,6917.935,95.439,542.004,537.596,0.0
50809.0,STARLINK-3232,PAYLOAD,2023-01-02 08:43:12,15.08826019,0.0003027,53.2173,337.0146,16.9866,343.1227,0.00042296,6.447e-05,0.0,0 STARLINK-3232,1 50809U 22001G   23002.36334270  .00006447  00000-0  42296-3 0  9999,2 50809  53.2173 337.0146 0003027  16.9866 343.1227 15.08826019 55076,6917.9230000000025,95.438,541.882,537.694,0.0
50809.0,STARLINK-3232,PAYLOAD,2023-01-02 15:04:45,15.08835912,0.0003126,53.2169,335.8257,18.912,341.1988,0.00043948,6.712e-05,0.0,0 STARLINK-3232,1 50809U 22001G   23002.62830195  .00006712  00000-0  43948-3 0  9995,2 50809  53.2169 335.8257 0003126  18.9120 341.1988 15.08835912 56395,6917.893,95.438,541.92,537.595,0.0
50809.0,STARLINK-3232,PAYLOAD,2023-01-03 06:58:37,15.0884106,0.0003122,53.2174,332.8526,20.4404,339.6713,0.00054778,8.441e-05,0.0,0 STARLINK-3232,1 50809U 22001G   23003.29070717  .00008441  00000-0  54778-3 0  9999,2 50809  53.2174 332.8526 0003122  20.4404 339.6713 15.08841060 55215,6917.877,95.437,541.9019999999998,537.582,0.0
50809.0,STARLINK-3232,PAYLOAD,2023-01-03 14:55:32,15.08846256,0.0003158,53.2176,331.3658,21.0756,339.0365,0.00050094,7.695e-05,0.0,0 STARLINK-3232,1 50809U 22001G   23003.62190644  .00007695  00000-0  50094-3 0  9995,2 50809  53.2176 331.3658 0003158  21.0756 339.0365 15.08846256 56549,6917.861,95.437,541.911,537.5419999999998,0.0
50809.0,STARLINK-3232,PAYLOAD,2023-01-04 03:38:37,15.08843885,0.0003154999999999,53.2179,328.9873,21.5643,338.5482,0.00027031,4.017e-05,0.0,0 STARLINK-3232,1 50809U 22001G   23004.15182577  .00004017  00000-0  27031-3 0  9990,2 50809  53.2179 328.9873 0003155  21.5643 338.5482 15.08843885 56628,6917.869000000002,95.437,541.9159999999998,537.5509999999998,0.0
50809.0,STARLINK-3232,PAYLOAD,2023-01-04 14:46:19,15.08850523,0.0003188,53.2182,326.9061,22.4395,337.6736,0.00034075,5.14e-05,0.0,0 STARLINK-3232,1 50809U 22001G   23004.61550377  .00005140  00000-0  34075-3 0  9992,2 50809  53.2182 326.9061 0003188  22.4395 337.6736 15.08850523 55414,6917.848000000001,95.437,541.919,537.508,0.0
50809.0,STARLINK-3232,PAYLOAD,2023-01-05 03:29:23,15.08863729,0.000314,53.2174,324.5267,21.6141,338.4983,0.00052694,8.114e-05,0.0,0 STARLINK-3232,1 50809U 22001G   23005.14541530  .00008114  00000-0  52694-3 0  9993,2 50809  53.2174 324.5267 0003140  21.6141 338.4983 15.08863729 56770,6917.808000000001,95.436,541.845,537.501,0.0
50809.0,STARLINK-3232,PAYLOAD,2023-01-05 06:40:09,15.08866783,0.0003203,53.2177,323.9325,22.3516,337.7615,0.00054944,8.474e-05,0.0,0 STARLINK-3232,1 50809U 22001G   23005.27789287  .00008474  00000-0  54944-3 0  9999,2 50809  53.2177 323.9325 0003203  22.3516 337.7615 15.08866783 55513,6917.799,95.436,541.879,537.448,0.0
50809.0,STARLINK-3232,PAYLOAD,2023-01-05 14:37:05,15.08869585,0.0003218,53.2175,322.4452,23.0566,337.057,0.00051316,7.895e-05,0.0,0 STARLINK-3232,1 50809U 22001G   23005.60908755  .00007895  00000-0  51316-3 0  9995,2 50809  53.2175 322.4452 0003218  23.0566 337.0570 15.08869585 55566,6917.79,95.436,541.881,537.429,0.0
50809.0,STARLINK-3232,PAYLOAD,2023-01-06 06:30:56,15.08836622,0.0003136,53.2181,319.4721,18.687,341.4237,-0.00043396,-7.189e-05,0.0,0 STARLINK-3232,1 50809U 22001G   23006.27149018 -.00007189  00000-0 -43396-3 0  9995,2 50809  53.2181 319.4721 0003136  18.6870 341.4237 15.08836622 56943,6917.891,95.438,541.925,537.586,0.0
50809.0,STARLINK-3232,PAYLOAD,2023-01-06 19:14:02,15.08826906,0.0003186,53.2171,317.0924,20.3337,339.7782,-0.0003106,-5.227e-05,0.0,0 STARLINK-3232,1 50809U 22001G   23006.80142144 -.00005227  00000-0 -31060-3 0  9993,2 50809  53.2171 317.0924 0003186  20.3337 339.7782 15.08826906 57023,6917.92,95.438,541.989,537.581,0.0
50809.0,STARLINK-3232,PAYLOAD,2023-01-06 20:49:25,15.08827801,0.0003114,53.2178,316.7956,19.7135,340.3977,-0.00022203,-3.82e-05,0.0,0 STARLINK-3232,1 50809U 22001G   23006.86766085 -.00003820  00000-0 -22203-3 0  9991,2 50809  53.2178 316.7956 0003114  19.7135 340.3977 15.08827801 55757,6917.9180000000015,95.438,541.937,537.628,0.0
50809.0,STARLINK-3232,PAYLOAD,2023-01-07 06:21:44,15.08833908,0.0003081,53.2176,315.0108,18.8605,341.2501,0.00052296,8.043e-05,0.0,0 STARLINK-3232,1 50809U 22001G   23007.26510410  .00008043  00000-0  52296-3 0  9990,2 50809  53.2176 315.0108 0003081  18.8605 341.2501 15.08833908 57098,6917.899,95.438,541.895,537.633,0.0
50809.0,STARLINK-3232,PAYLOAD,2023-01-07 20:40:13,15.08836987,0.0003024,53.2176,312.3341,18.9987,341.1117,0.00064801,0.00010039,0.0,0 STARLINK-3232,1 50809U 22001G   23007.86127023  .00010039  00000-0  64801-3 0  9993,2 50809  53.2176 312.3341 0003024  18.9987 341.1117 15.08836987 57180,6917.89,95.438,541.847,537.663,0.0
50809.0,STARLINK-3232,PAYLOAD,2023-01-08 03:01:46,15.08835152,0.0003058,53.2181,311.1458,18.6487,341.4617,0.00042889,6.543e-05,0.0,0 STARLINK-3232,1 50809U 22001G   23008.12623327  .00006543  00000-0  42889-3 0  9998,2 50809  53.2181 311.1458 0003058  18.6487 341.4617 15.08835152 57227,6917.895,95.438,541.876,537.645,0.0
